{
  "type": "FeatureCollection",
  "features": [
    {
      "type": "Feature",
      "properties": { "name": "United States - East" },
      "geometry": {
        "type": "Polygon",
        "coordinates": [
          [
            [-85.0, 30.0],
            [-70.0, 30.0],
            [-70.0, 45.0],
            [-85.0, 45.0],
            [-85.0, 30.0]
          ]
        ]
      }
    },
    {
      "type": "Feature",
      "properties": { "name": "United States - West" },
      "geometry": {
        "type": "Polygon",
        "coordinates": [
          [
            [-124.0, 32.0],
            [-114.0, 32.0],
            [-114.0, 49.0],
            [-124.0, 49.0],
            [-124.0, 32.0]
          ]
        ]
      }
    },
    {
      "type": "Feature",
      "properties": { "name": "Canada - South" },
      "geometry": {
        "type": "Polygon",
        "coordinates": [
          [
            [-123.0, 48.0],
            [-73.0, 43.0],
            [-73.0, 52.0],
            [-123.0, 52.0],
            [-123.0, 48.0]
          ]
        ]
      }
    },
    {
      "type": "Feature",
      "properties": { "name": "United Kingdom & Ireland" },
      "geometry": {
        "type": "Polygon",
        "coordinates": [
          [
            [-10.0, 51.0],
            [1.5, 51.0],
            [1.5, 58.0],
            [-10.0, 58.0],
            [-10.0, 51.0]
          ]
        ]
      }
    },
    {
      "type": "Feature",
      "properties": { "name": "South Korea" },
      "geometry": {
        "type": "Polygon",
        "coordinates": [
          [
            [126.0, 34.5],
            [129.5, 34.5],
            [129.5, 38.0],
            [126.0, 38.0],
            [126.0, 34.5]
          ]
        ]
      }
    }
  ]
}
